{
    "links": {
        "self": "http://www.neowsapp.com/rest/v1/neo/3550611?api_key=iIulBulltgU6a56xZRHN4H3l9WmuAYTsLGpBGhQ2"
    },
    "id": "3550611",
    "neo_reference_id": "3550611",
    "name": "(2010 VS21)",
    "designation": "2010 VS21",
    "nasa_jpl_url": "http://ssd.jpl.nasa.gov/sbdb.cgi?sstr=3550611",
    "absolute_magnitude_h": 24.1,
    "estimated_diameter": {
        "kilometers": {
            "estimated_diameter_min": 0.040230458,
            "estimated_diameter_max": 0.0899580388
        },
        "meters": {
            "estimated_diameter_min": 40.2304579834,
            "estimated_diameter_max": 89.9580388169
        },
        "miles": {
            "estimated_diameter_min": 0.0249980399,
            "estimated_diameter_max": 0.0558973165
        },
        "feet": {
            "estimated_diameter_min": 131.9896957704,
            "estimated_diameter_max": 295.1379320721
        }
    },
    "is_potentially_hazardous_asteroid": false,
    "close_approach_data": [
        {
            "close_approach_date": "2008-11-09",
            "close_approach_date_full": "2008-Nov-09 13:38",
            "epoch_date_close_approach": 1226237880000,
            "relative_velocity": {
                "kilometers_per_second": "5.7208977118",
                "kilometers_per_hour": "20595.2317625795",
                "miles_per_hour": "12797.0760915873"
            },
            "miss_distance": {
                "astronomical": "0.2295078186",
                "lunar": "89.2785414354",
                "kilometers": "34333880.810906382",
                "miles": "21334084.2612647916"
            },
            "orbiting_body": "Earth"
        },
        {
            "close_approach_date": "2010-11-09",
            "close_approach_date_full": "2010-Nov-09 01:29",
            "epoch_date_close_approach": 1289266140000,
            "relative_velocity": {
                "kilometers_per_second": "3.9419567673",
                "kilometers_per_hour": "14191.0443621578",
                "miles_per_hour": "8817.7630926974"
            },
            "miss_distance": {
                "astronomical": "0.111854537",
                "lunar": "43.511414893",
                "kilometers": "16733200.48503619",
                "miles": "10397528.641591822"
            },
            "orbiting_body": "Earth"
        },
        {
            "close_approach_date": "2012-11-03",
            "close_approach_date_full": "2012-Nov-03 04:21",
            "epoch_date_close_approach": 1351916460000,
            "relative_velocity": {
                "kilometers_per_second": "8.6541184385",
                "kilometers_per_hour": "31154.8263786093",
                "miles_per_hour": "19358.3975350864"
            },
            "miss_distance": {
                "astronomical": "0.3140011974",
                "lunar": "122.1464657886",
                "kilometers": "46973910.308489538",
                "miles": "29188234.3892821044"
            },
            "orbiting_body": "Earth"
        }
    ],
    "orbital_data": {
        "orbit_id": "12",
        "orbit_determination_date": "2017-04-06 08:55:52",
        "first_observation_date": "2010-11-06",
        "last_observation_date": "2010-12-14",
        "data_arc_in_days": 38,
        "observations_used": 42,
        "orbit_uncertainty": "7",
        "minimum_orbit_intersection": ".103727",
        "jupiter_tisserand_invariant": "4.363",
        "epoch_osculation": "2459000.5",
        "eccentricity": ".3027360758596193",
        "semi_major_axis": "1.566462155651963",
        "inclination": "5.127446742358412",
        "ascending_node_longitude": "41.4992351725634",
        "orbital_period": "716.1076078150805",
        "perihelion_distance": "1.092237549667288",
        "perihelion_argument": "10.66330355388096",
        "aphelion_distance": "2.040686761636639",
        "perihelion_time": "2459094.078094625833",
        "mean_anomaly": "312.9566315206649",
        "mean_motion": ".502717742516935",
        "equinox": "J2000",
        "orbit_class": {
            "orbit_class_type": "AMO",
            "orbit_class_description": "Near-Earth asteroid orbits similar to that of 1221 Amor",
            "orbit_class_range": "1.017 AU < q (perihelion) < 1.3 AU"
        }
    },
    "is_sentry_object": false
}